OBJECT_NAME,OBJECT_ID,EPOCH,MEAN_MOTION,ECCENTRICITY,INCLINATION,RA_OF_ASC_NODE,ARG_OF_PERICENTER,MEAN_ANOMALY,EPHEMERIS_TYPE,CLASSIFICATION_TYPE,NORAD_CAT_ID,ELEMENT_SET_NO,REV_AT_EPOCH,BSTAR,MEAN_MOTION_DOT,MEAN_MOTION_DDOT
IRIDIUM 156,2018-061H,2026-06-05T06:09:46.535904,14.34217912,.0002165,86.3966,61.7176,79.9500,280.1940,0,U,43576,999,41166,.75094E-4,.23E-5,0
IRIDIUM 164,2018-061J,2026-06-05T10:43:46.333920,14.34216769,.0002067,86.3967,61.6782,88.4479,271.6953,0,U,43577,999,41173,.47806E-4,.154E-5,0
IRIDIUM 159,2018-061K,2026-06-05T11:38:34.514016,14.34217376,.0002188,86.3962,61.5990,85.7098,274.4348,0,U,43578,999,41170,-.30154E-5,.11E-6,0
IRIDIUM 180,2019-002A,2026-06-05T11:37:50.964096,14.34217757,.0002236,86.3973,358.4908,88.6496,271.4956,0,U,43922,999,38731,.36964E-5,.3E-6,0
IRIDIUM 176,2019-002B,2026-06-05T01:27:27.603360,14.72250840,.0002234,86.6096,358.6135,83.0034,277.1437,0,U,43923,999,39746,.19074E-3,.1227E-4,0
IRIDIUM 168,2019-002C,2026-06-05T11:28:42.971232,14.34217322,.0002072,86.3972,358.5708,89.8573,270.2860,0,U,43924,999,38729,-.9515E-5,-.7E-7,0
IRIDIUM 173,2019-002D,2026-06-05T06:09:02.711232,14.34219150,.0002234,86.3971,358.5521,86.2879,273.8572,0,U,43925,999,38724,.49476E-4,.158E-5,0
IRIDIUM 169,2019-002E,2026-06-05T08:35:48.976800,14.38608885,.0002265,86.4236,30.1387,70.5362,289.6081,0,U,43926,999,38852,.95484E-4,.312E-5,0
IRIDIUM 172,2019-002F,2026-06-05T07:40:22.970784,14.34217654,.0002282,86.3972,358.5340,89.5100,270.6358,0,U,43927,999,38726,.6632E-5,.38E-6,0
IRIDIUM 175,2019-002G,2026-06-05T15:08:31.354944,14.43606201,.000109,86.4506,295.3529,239.0378,121.0716,0,U,43928,999,39731,.10237E-3,.367E-5,0
IRIDIUM 171,2019-002H,2026-06-05T07:12:58.923072,14.34217500,.000192,86.3980,358.8466,86.6962,273.4453,0,U,43929,999,38725,-.97643E-6,.17E-6,0
IRIDIUM 170,2019-002J,2026-06-05T06:29:59.174592,14.72249691,.0002417,86.6095,358.5286,90.5498,269.5996,0,U,43930,999,39750,.32602E-4,.23E-5,0
IRIDIUM 167,2019-002K,2026-06-05T07:03:50.886144,14.34217605,.0001887,86.3974,358.5667,84.6711,275.4700,0,U,43931,999,38725,-.67884E-6,.18E-6,0
IRIDIUM 181,2023-068S,2026-06-05T11:01:07.999104,14.43308035,.0002272,86.4503,61.6926,89.8948,270.2513,0,U,56726,999,16074,.985E-4,.352E-5,0
IRIDIUM 177,2023-068T,2026-06-05T00:27:25.053408,14.80230899,.00024352,86.1958,334.5722,86.4963,273.6537,0,U,56727,999,16456,.60813159E-4,.489E-5,0
IRIDIUM 174,2023-068U,2026-06-05T01:18:33.670368,14.72253240,.0002423,86.6100,358.7643,89.6216,270.5279,0,U,56728,999,16423,.61731E-4,.414E-5,0
IRIDIUM 178,2023-068V,2026-06-05T01:49:06.273120,14.80245362,.0002495,86.6547,30.4218,88.9380,271.2128,0,U,56729,999,16457,.13718E-3,.1069E-4,0
IRIDIUM 179,2023-068W,2026-06-04T15:57:19.342944,14.80241824,.00023364,86.6785,39.5356,85.6761,274.4728,0,U,56730,999,16451,.15277467E-3,.1187E-4,0
